COSMOS 2251 DEB         
1 33932U 93036EM  26065.59673506  .00001888  00000+0  61468-3 0  9993
2 33932  74.0342 161.2253 0037115 221.8588 137.9728 14.39033434892047
COSMOS 2251 DEB         
1 33933U 93036EN  26065.23794655  .00000956  00000+0  34378-3 0  9999
2 33933  74.0864 267.9232 0072383 255.6219 103.6891 14.33705129889813
COSMOS 2251 DEB         
1 33934U 93036EP  26065.65429622  .00003834  00000+0  80584-3 0  9993
2 33934  74.0371 300.5903 0014281  38.8255 321.3934 14.59871171899637
COSMOS 2251 DEB         
1 33936U 93036ER  26065.81035350  .00004514  00000+0  92276-3 0  9991
2 33936  74.0157 236.7204 0027576   5.6747 354.4726 14.60906295901171
COSMOS 2251 DEB         
1 33938U 93036ET  26065.40918890  .00002467  00000+0  68263-3 0  9991
2 33938  74.0455  50.9132 0014189 119.8321   6.5070 14.47147113896106
COSMOS 2251 DEB         
1 33939U 93036EU  26065.56628028  .00081842  00000+0  50153-2 0  9992
2 33939  74.0015 268.7534 0001843 244.9113 115.1887 15.09742198900131
COSMOS 2251 DEB         
1 33940U 93036EV  26064.53523280  .00006163  00000+0  12966-2 0  9997
2 33940  74.0430 345.7307 0009011  40.3656 139.2805 14.59715438898014
COSMOS 2251 DEB         
1 33942U 93036EX  26065.84493118  .00000698  00000+0  23830-3 0  9990
2 33942  74.0352 119.9227 0020626 191.2690 288.5280 14.38122385893436
COSMOS 2251 DEB         
1 33944U 93036EZ  26065.33716958  .00001362  00000+0  43027-3 0  9995
2 33944  74.0408 155.1006 0114313 235.2243 188.4840 14.37544305892299
COSMOS 2251 DEB         
1 33945U 93036FA  26065.59820763  .00000451  00000+0  16809-3 0  9990
2 33945  74.0303 152.6046 0023560 224.2795 135.6473 14.34677156892185
COSMOS 2251 DEB         
1 33948U 93036FD  26065.56646944  .00000641  00000+0  23015-3 0  9995
2 33948  74.0359 151.3235 0023964 213.2704 146.6943 14.35737373892263
COSMOS 2251 DEB         
1 33971U 93036FE  26065.18614933  .00000777  00000+0  25526-3 0  9991
2 33971  74.0228  99.4933 0018860 189.6866 232.4636 14.39896438893407
COSMOS 2251 DEB         
1 33972U 93036FF  26065.38606384  .00004716  00000+0  14498-2 0  9997
2 33972  74.0003  36.4701 0125726 186.7107 302.3606 14.37345077882755
COSMOS 2251 DEB         
1 33973U 93036FG  26065.06907167  .00000456  00000+0  13547-3 0  9998
2 33973  74.0088 307.2953 0045048 106.4659   5.0953 14.45488031898044
COSMOS 2251 DEB         
1 33975U 93036FJ  26065.08216523  .00000818  00000+0  48415-3 0  9995
2 33975  73.8008 297.9377 0189632  56.1883 305.7143 14.00671801869968
COSMOS 2251 DEB         
1 33980U 93036FP  26065.49349721  .00003588  00000+0  76192-3 0  9993
2 33980  74.0179 259.6880 0028067  19.7935  25.9401 14.59248100900169
