[{"OBJECT_NAME":"COSMOS 2251 DEB","OBJECT_ID":"1993-036EM","EPOCH":"2026-03-06T14:19:17.909184","MEAN_MOTION":14.39033434,"ECCENTRICITY":0.00371157,"INCLINATION":74.0342,"RA_OF_ASC_NODE":161.2253,"ARG_OF_PERICENTER":221.8588,"MEAN_ANOMALY":137.9728,"EPHEMERIS_TYPE":0,"CLASSIFICATION_TYPE":"U","NORAD_CAT_ID":33932,"ELEMENT_SET_NO":999,"REV_AT_EPOCH":89204,"BSTAR":0.00061468343,"MEAN_MOTION_DOT":1.888e-5,"MEAN_MOTION_DDOT":0},{"OBJECT_NAME":"COSMOS 2251 DEB","OBJECT_ID":"1993-036EN","EPOCH":"2026-03-06T05:42:38.581920","MEAN_MOTION":14.33705129,"ECCENTRICITY":0.00723838,"INCLINATION":74.0864,"RA_OF_ASC_NODE":267.9232,"ARG_OF_PERICENTER":255.6219,"MEAN_ANOMALY":103.6891,"EPHEMERIS_TYPE":0,"CLASSIFICATION_TYPE":"U","NORAD_CAT_ID":33933,"ELEMENT_SET_NO":999,"REV_AT_EPOCH":88981,"BSTAR":0.00034377793,"MEAN_MOTION_DOT":9.56e-6,"MEAN_MOTION_DDOT":0},{"OBJECT_NAME":"COSMOS 2251 DEB","OBJECT_ID":"1993-036EP","EPOCH":"2026-03-06T15:42:11.193408","MEAN_MOTION":14.59871171,"ECCENTRICITY":0.00142811,"INCLINATION":74.0371,"RA_OF_ASC_NODE":300.5903,"ARG_OF_PERICENTER":38.8255,"MEAN_ANOMALY":321.3934,"EPHEMERIS_TYPE":0,"CLASSIFICATION_TYPE":"U","NORAD_CAT_ID":33934,"ELEMENT_SET_NO":999,"REV_AT_EPOCH":89963,"BSTAR":0.0008058421,"MEAN_MOTION_DOT":3.834e-5,"MEAN_MOTION_DDOT":0},{"OBJECT_NAME":"COSMOS 2251 DEB","OBJECT_ID":"1993-036ER","EPOCH":"2026-03-06T19:26:54.542400","MEAN_MOTION":14.60906295,"ECCENTRICITY":0.0027576,"INCLINATION":74.0157,"RA_OF_ASC_NODE":236.7204,"ARG_OF_PERICENTER":5.6747,"MEAN_ANOMALY":354.4726,"EPHEMERIS_TYPE":0,"CLASSIFICATION_TYPE":"U","NORAD_CAT_ID":33936,"ELEMENT_SET_NO":999,"REV_AT_EPOCH":90117,"BSTAR":0.00092276,"MEAN_MOTION_DOT":4.514e-5,"MEAN_MOTION_DDOT":0},{"OBJECT_NAME":"COSMOS 2251 DEB","OBJECT_ID":"1993-036ET","EPOCH":"2026-03-06T09:49:13.920960","MEAN_MOTION":14.47147113,"ECCENTRICITY":0.00141892,"INCLINATION":74.0455,"RA_OF_ASC_NODE":50.9132,"ARG_OF_PERICENTER":119.8321,"MEAN_ANOMALY":6.507,"EPHEMERIS_TYPE":0,"CLASSIFICATION_TYPE":"U","NORAD_CAT_ID":33938,"ELEMENT_SET_NO":999,"REV_AT_EPOCH":89610,"BSTAR":0.0006826259,"MEAN_MOTION_DOT":2.467e-5,"MEAN_MOTION_DDOT":0},{"OBJECT_NAME":"COSMOS 2251 DEB","OBJECT_ID":"1993-036EU","EPOCH":"2026-03-06T13:35:26.616192","MEAN_MOTION":15.09742198,"ECCENTRICITY":0.00018432,"INCLINATION":74.0015,"RA_OF_ASC_NODE":268.7534,"ARG_OF_PERICENTER":244.9113,"MEAN_ANOMALY":115.1887,"EPHEMERIS_TYPE":0,"CLASSIFICATION_TYPE":"U","NORAD_CAT_ID":33939,"ELEMENT_SET_NO":999,"REV_AT_EPOCH":90013,"BSTAR":0.0050152633,"MEAN_MOTION_DOT":0.00081842,"MEAN_MOTION_DDOT":0},{"OBJECT_NAME":"COSMOS 2251 DEB","OBJECT_ID":"1993-036EV","EPOCH":"2026-03-05T12:50:44.113920","MEAN_MOTION":14.59715438,"ECCENTRICITY":0.0009011,"INCLINATION":74.043,"RA_OF_ASC_NODE":345.7307,"ARG_OF_PERICENTER":40.3656,"MEAN_ANOMALY":139.2805,"EPHEMERIS_TYPE":0,"CLASSIFICATION_TYPE":"U","NORAD_CAT_ID":33940,"ELEMENT_SET_NO":999,"REV_AT_EPOCH":89801,"BSTAR":0.0012966,"MEAN_MOTION_DOT":6.163e-5,"MEAN_MOTION_DDOT":0},{"OBJECT_NAME":"COSMOS 2251 DEB","OBJECT_ID":"1993-036EX","EPOCH":"2026-03-06T20:16:42.053952","MEAN_MOTION":14.38122385,"ECCENTRICITY":0.0020626,"INCLINATION":74.0352,"RA_OF_ASC_NODE":119.9227,"ARG_OF_PERICENTER":191.269,"MEAN_ANOMALY":288.528,"EPHEMERIS_TYPE":0,"CLASSIFICATION_TYPE":"U","NORAD_CAT_ID":33942,"ELEMENT_SET_NO":999,"REV_AT_EPOCH":89343,"BSTAR":0.0002383,"MEAN_MOTION_DOT":6.98e-6,"MEAN_MOTION_DDOT":0},{"OBJECT_NAME":"COSMOS 2251 DEB","OBJECT_ID":"1993-036EZ","EPOCH":"2026-03-06T08:05:31.451712","MEAN_MOTION":14.37544305,"ECCENTRICITY":0.01143133,"INCLINATION":74.0408,"RA_OF_ASC_NODE":155.1006,"ARG_OF_PERICENTER":235.2243,"MEAN_ANOMALY":188.484,"EPHEMERIS_TYPE":0,"CLASSIFICATION_TYPE":"U","NORAD_CAT_ID":33944,"ELEMENT_SET_NO":999,"REV_AT_EPOCH":89229,"BSTAR":0.00043027018,"MEAN_MOTION_DOT":1.362e-5,"MEAN_MOTION_DDOT":0},{"OBJECT_NAME":"COSMOS 2251 DEB","OBJECT_ID":"1993-036FA","EPOCH":"2026-03-06T14:21:25.139232","MEAN_MOTION":14.34677156,"ECCENTRICITY":0.00235608,"INCLINATION":74.0303,"RA_OF_ASC_NODE":152.6046,"ARG_OF_PERICENTER":224.2795,"MEAN_ANOMALY":135.6473,"EPHEMERIS_TYPE":0,"CLASSIFICATION_TYPE":"U","NORAD_CAT_ID":33945,"ELEMENT_SET_NO":999,"REV_AT_EPOCH":89218,"BSTAR":0.00016809253,"MEAN_MOTION_DOT":4.51e-6,"MEAN_MOTION_DDOT":0},{"OBJECT_NAME":"COSMOS 2251 DEB","OBJECT_ID":"1993-036FD","EPOCH":"2026-03-06T13:35:42.959616","MEAN_MOTION":14.35737373,"ECCENTRICITY":0.00239642,"INCLINATION":74.0359,"RA_OF_ASC_NODE":151.3235,"ARG_OF_PERICENTER":213.2704,"MEAN_ANOMALY":146.6943,"EPHEMERIS_TYPE":0,"CLASSIFICATION_TYPE":"U","NORAD_CAT_ID":33948,"ELEMENT_SET_NO":999,"REV_AT_EPOCH":89226,"BSTAR":0.00023015214,"MEAN_MOTION_DOT":6.41e-6,"MEAN_MOTION_DDOT":0},{"OBJECT_NAME":"COSMOS 2251 DEB","OBJECT_ID":"1993-036FE","EPOCH":"2026-03-06T04:28:03.302112","MEAN_MOTION":14.39896438,"ECCENTRICITY":0.00188603,"INCLINATION":74.0228,"RA_OF_ASC_NODE":99.4933,"ARG_OF_PERICENTER":189.6866,"MEAN_ANOMALY":232.4636,"EPHEMERIS_TYPE":0,"CLASSIFICATION_TYPE":"U","NORAD_CAT_ID":33971,"ELEMENT_SET_NO":999,"REV_AT_EPOCH":89340,"BSTAR":0.00025525766,"MEAN_MOTION_DOT":7.77e-6,"MEAN_MOTION_DDOT":0},{"OBJECT_NAME":"COSMOS 2251 DEB","OBJECT_ID":"1993-036FF","EPOCH":"2026-03-06T09:15:55.915776","MEAN_MOTION":14.37345077,"ECCENTRICITY":0.01257266,"INCLINATION":74.0003,"RA_OF_ASC_NODE":36.4701,"ARG_OF_PERICENTER":186.7107,"MEAN_ANOMALY":302.3606,"EPHEMERIS_TYPE":0,"CLASSIFICATION_TYPE":"U","NORAD_CAT_ID":33972,"ELEMENT_SET_NO":999,"REV_AT_EPOCH":88275,"BSTAR":0.0014497724,"MEAN_MOTION_DOT":4.716e-5,"MEAN_MOTION_DDOT":0},{"OBJECT_NAME":"COSMOS 2251 DEB","OBJECT_ID":"1993-036FG","EPOCH":"2026-03-06T01:39:27.792288","MEAN_MOTION":14.45488031,"ECCENTRICITY":0.0045048,"INCLINATION":74.0088,"RA_OF_ASC_NODE":307.2953,"ARG_OF_PERICENTER":106.4659,"MEAN_ANOMALY":5.0953,"EPHEMERIS_TYPE":0,"CLASSIFICATION_TYPE":"U","NORAD_CAT_ID":33973,"ELEMENT_SET_NO":999,"REV_AT_EPOCH":89804,"BSTAR":0.00013547361,"MEAN_MOTION_DOT":4.56e-6,"MEAN_MOTION_DDOT":0},{"OBJECT_NAME":"COSMOS 2251 DEB","OBJECT_ID":"1993-036FJ","EPOCH":"2026-03-06T01:58:19.075872","MEAN_MOTION":14.00671801,"ECCENTRICITY":0.0189632,"INCLINATION":73.8008,"RA_OF_ASC_NODE":297.9377,"ARG_OF_PERICENTER":56.1883,"MEAN_ANOMALY":305.7143,"EPHEMERIS_TYPE":0,"CLASSIFICATION_TYPE":"U","NORAD_CAT_ID":33975,"ELEMENT_SET_NO":999,"REV_AT_EPOCH":86996,"BSTAR":0.00048414651,"MEAN_MOTION_DOT":8.18e-6,"MEAN_MOTION_DDOT":0},{"OBJECT_NAME":"COSMOS 2251 DEB","OBJECT_ID":"1993-036FP","EPOCH":"2026-03-06T11:50:38.158944","MEAN_MOTION":14.592481,"ECCENTRICITY":0.00280679,"INCLINATION":74.0179,"RA_OF_ASC_NODE":259.688,"ARG_OF_PERICENTER":19.7935,"MEAN_ANOMALY":25.9401,"EPHEMERIS_TYPE":0,"CLASSIFICATION_TYPE":"U","NORAD_CAT_ID":33980,"ELEMENT_SET_NO":999,"REV_AT_EPOCH":90016,"BSTAR":0.00076191844,"MEAN_MOTION_DOT":3.588e-5,"MEAN_MOTION_DDOT":0}]
